STARLINK-36847          
1 67910U 26036G   26062.16668981 -.01617965  00000+0 -76650-2 0  9993
2 67910  42.9948 289.7341 0001707 275.4201 224.0968 15.84887600  2607
STARLINK-36736          
1 67911U 26036H   26062.16668981 -.01619293  00000+0 -76075-2 0  9991
2 67911  42.9944 289.7244 0001527 281.0540 222.2130 15.85063406  2607
STARLINK-36676          
1 67912U 26036J   26062.16668981 -.01606571  00000+0 -74686-2 0  9993
2 67912  42.9946 289.7155 0001786 282.1523 224.7573 15.85251554  2602
STARLINK-36690          
1 67913U 26036K   26062.16668981 -.01611087  00000+0 -74370-2 0  9992
2 67913  42.9946 289.7060 0001713 278.4840 232.1987 15.85404465  2601
STARLINK-36724          
1 67914U 26036L   26062.16668981 -.01613391  00000+0 -73251-2 0  9990
2 67914  42.9944 289.6871 0001609 274.9276 243.0607 15.85747247  2605
STARLINK-36723          
1 67915U 26036M   26062.16668981 -.01619391  00000+0 -74253-2 0  9990
2 67915  42.9945 289.6964 0001685 279.6138 234.8279 15.85556783  2609
STARLINK-36721          
1 67916U 26036N   26062.16668981 -.01620805  00000+0 -73152-2 0  9990
2 67916  42.9947 289.6781 0001687 280.8833 240.8905 15.85880433  2602
STARLINK-36722          
1 67917U 26036P   26062.16668981 -.01559433  00000+0 -69590-2 0  9990
2 67917  42.9946 289.6688 0002069 272.7906 252.6046 15.85992857  2605
STARLINK-36341          
1 67918U 26036Q   26062.16668981 -.01612462  00000+0 -70959-2 0  9994
2 67918  42.9946 289.6508 0001674 275.5454 256.9459 15.86375953  2605
STARLINK-36663          
1 67919U 26036R   26062.16668981 -.01613581  00000+0 -71595-2 0  9995
2 67919  42.9948 289.6601 0001595 275.3629 253.5702 15.86213263  2605
STARLINK-36375          
1 67920U 26036S   26062.16668981 -.01615426  00000+0 -70596-2 0  9997
2 67920  42.9947 289.6419 0001645 277.7438 258.3718 15.86522227  2606
STARLINK-36405          
1 67921U 26036T   26062.16668981 -.01607738  00000+0 -69607-2 0  9996
2 67921  42.9947 289.6334 0001721 275.4157 264.1250 15.86694896  2609
